{
  "norad_id": 64039,
  "name": "STARLINK-34089",
  "history": [
    {
      "epoch": "2026-04-30T14:31:47.443872Z",
      "apogee_km": 573.8646067983873,
      "perigee_km": 570.2145130726412,
      "latitude_deg": -4.285829793904377e-05,
      "longitude_deg": -92.74325379424724,
      "height_km": 574.5489170110047,
      "semi_major_axis_km": 6950.176559935514,
      "eccentricity": 0.00026259,
      "inclination_deg": 70.0022,
      "raan_deg": 343.7542,
      "arg_perigee_deg": 267.4215,
      "mean_anomaly_deg": 92.6643,
      "mean_motion_rev_day": 14.98335281
    },
    {
      "epoch": "2026-05-02T08:11:17.131200Z",
      "apogee_km": 573.8678051763527,
      "perigee_km": 570.2064534450319,
      "latitude_deg": -4.1817040896112976e-05,
      "longitude_deg": -3.7052962981794173,
      "height_km": 574.6279082197706,
      "semi_major_axis_km": 6950.1741293106925,
      "eccentricity": 0.0002634,
      "inclination_deg": 70.0015,
      "raan_deg": 339.3767,
      "arg_perigee_deg": 264.874,
      "mean_anomaly_deg": 95.2118,
      "mean_motion_rev_day": 14.98336067
    },
    {
      "epoch": "2026-05-03T21:02:22.540992Z",
      "apogee_km": 573.8407316177218,
      "perigee_km": 570.2308118800756,
      "latitude_deg": -4.572369755167275e-05,
      "longitude_deg": 158.1376199434868,
      "height_km": 574.4931287056197,
      "semi_major_axis_km": 6950.172771748898,
      "eccentricity": 0.0002597,
      "inclination_deg": 70.0013,
      "raan_deg": 335.5056,
      "arg_perigee_deg": 269.0412,
      "mean_anomaly_deg": 91.0449,
      "mean_motion_rev_day": 14.98336506
    },
    {
      "epoch": "2026-05-04T19:28:15.303072Z",
      "apogee_km": 573.8600046006586,
      "perigee_km": 570.2083846550022,
      "latitude_deg": -7.332282939246332e-07,
      "longitude_deg": 178.3897692641664,
      "height_km": 574.4742730353125,
      "semi_major_axis_km": 6950.17119462783,
      "eccentricity": 0.0002627,
      "inclination_deg": 70.0013,
      "raan_deg": 333.1488,
      "arg_perigee_deg": 269.5952,
      "mean_anomaly_deg": 90.4906,
      "mean_motion_rev_day": 14.98337016
    },
    {
      "epoch": "2026-05-05T17:54:08.142048Z",
      "apogee_km": 573.8431690589914,
      "perigee_km": 570.233248055667,
      "latitude_deg": 5.300734803557677e-05,
      "longitude_deg": -161.3581998051063,
      "height_km": 574.4729733782867,
      "semi_major_axis_km": 6950.175208557329,
      "eccentricity": 0.0002597,
      "inclination_deg": 70.0014,
      "raan_deg": 330.7922,
      "arg_perigee_deg": 269.7582,
      "mean_anomaly_deg": 90.328,
      "mean_motion_rev_day": 14.98335718
    },
    {
      "epoch": "2026-05-06T17:56:09.218688Z",
      "apogee_km": 573.7750722266419,
      "perigee_km": 570.3277787675952,
      "latitude_deg": 1.222353235240555e-05,
      "longitude_deg": -165.37423060763783,
      "height_km": 574.4998964326703,
      "semi_major_axis_km": 6950.188425497118,
      "eccentricity": 0.000248,
      "inclination_deg": 70.0019,
      "raan_deg": 328.2677,
      "arg_perigee_deg": 269.2883,
      "mean_anomaly_deg": 90.7992,
      "mean_motion_rev_day": 14.98331444
    },
    {
      "epoch": "2026-05-07T19:34:18.457824Z",
      "apogee_km": 573.7725156244333,
      "perigee_km": 570.318274973969,
      "latitude_deg": 6.735608576107674e-05,
      "longitude_deg": 166.3407601721931,
      "height_km": 574.4892215076692,
      "semi_major_axis_km": 6950.182395299201,
      "eccentricity": 0.0002485,
      "inclination_deg": 70.0017,
      "raan_deg": 325.574,
      "arg_perigee_deg": 269.4434,
      "mean_anomaly_deg": 90.6441,
      "mean_motion_rev_day": 14.98333394
    },
    {
      "epoch": "2026-05-08T21:12:27.475776Z",
      "apogee_km": 573.8477108165298,
      "perigee_km": 570.2211113742196,
      "latitude_deg": -1.2618160934103167e-05,
      "longitude_deg": 138.05682682790538,
      "height_km": 574.4988938517773,
      "semi_major_axis_km": 6950.171411095374,
      "eccentricity": 0.0002609,
      "inclination_deg": 70.0015,
      "raan_deg": 322.8805,
      "arg_perigee_deg": 268.8212,
      "mean_anomaly_deg": 91.2648,
      "mean_motion_rev_day": 14.98336946
    },
    {
      "epoch": "2026-05-09T19:38:20.121216Z",
      "apogee_km": 573.8347215400654,
      "perigee_km": 570.224804923243,
      "latitude_deg": 4.588945278930369e-05,
      "longitude_deg": 158.30976970388622,
      "height_km": 574.4957926054929,
      "semi_major_axis_km": 6950.166763231654,
      "eccentricity": 0.0002597,
      "inclination_deg": 70.0014,
      "raan_deg": 320.524,
      "arg_perigee_deg": 268.7659,
      "mean_anomaly_deg": 91.3203,
      "mean_motion_rev_day": 14.98338449
    },
    {
      "epoch": "2026-05-10T19:40:20.994816Z",
      "apogee_km": 573.8234637246996,
      "perigee_km": 570.2608019012196,
      "latitude_deg": -3.413101753015515e-05,
      "longitude_deg": 154.2940756590391,
      "height_km": 574.4924713484207,
      "semi_major_axis_km": 6950.179132812959,
      "eccentricity": 0.0002563,
      "inclination_deg": 70.0014,
      "raan_deg": 317.999,
      "arg_perigee_deg": 269.2532,
      "mean_anomaly_deg": 90.8333,
      "mean_motion_rev_day": 14.98334449
    },
    {
      "epoch": "2026-05-11T19:42:21.745728Z",
      "apogee_km": 573.8285739307184,
      "perigee_km": 570.2436746332141,
      "latitude_deg": -7.751885423784397e-05,
      "longitude_deg": 150.27940838318753,
      "height_km": 574.5445179870339,
      "semi_major_axis_km": 6950.173124281966,
      "eccentricity": 0.0002579,
      "inclination_deg": 70.0012,
      "raan_deg": 315.4745,
      "arg_perigee_deg": 267.4017,
      "mean_anomaly_deg": 92.6846,
      "mean_motion_rev_day": 14.98336392
    },
    {
      "epoch": "2026-05-12T19:44:22.812000Z",
      "apogee_km": 573.8479830372444,
      "perigee_km": 570.2394492094336,
      "latitude_deg": 1.528994556383097e-05,
      "longitude_deg": 146.2628734854287,
      "height_km": 574.5483704182888,
      "semi_major_axis_km": 6950.180716123339,
      "eccentricity": 0.0002596,
      "inclination_deg": 70.0009,
      "raan_deg": 312.9494,
      "arg_perigee_deg": 267.5371,
      "mean_anomaly_deg": 92.5491,
      "mean_motion_rev_day": 14.98333937
    },
    {
      "epoch": "2026-05-13T11:45:43.509024Z",
      "apogee_km": 573.8339484791331,
      "perigee_km": 570.2559948001335,
      "latitude_deg": -3.0127039306641158e-05,
      "longitude_deg": -96.41469737843175,
      "height_km": 574.5440814068478,
      "semi_major_axis_km": 6950.181971639633,
      "eccentricity": 0.0002574,
      "inclination_deg": 70.0004,
      "raan_deg": 311.2661,
      "arg_perigee_deg": 267.692,
      "mean_anomaly_deg": 92.3944,
      "mean_motion_rev_day": 14.98333531
    },
    {
      "epoch": "2026-05-14T05:23:12.322752Z",
      "apogee_km": 573.849010935699,
      "perigee_km": 570.2418662500686,
      "latitude_deg": -7.1070975349364e-05,
      "longitude_deg": -3.360288515706473,
      "height_km": 574.5154764783464,
      "semi_major_axis_km": 6950.182438592883,
      "eccentricity": 0.0002595,
      "inclination_deg": 70.0006,
      "raan_deg": 309.4144,
      "arg_perigee_deg": 268.6359,
      "mean_anomaly_deg": 91.4502,
      "mean_motion_rev_day": 14.9833338
    },
    {
      "epoch": "2026-05-14T11:47:44.524320Z",
      "apogee_km": 573.8554852655061,
      "perigee_km": 570.2216554702964,
      "latitude_deg": 3.1893757580576296e-05,
      "longitude_deg": -100.43123040512012,
      "height_km": 574.5305999816669,
      "semi_major_axis_km": 6950.175570367901,
      "eccentricity": 0.00026142,
      "inclination_deg": 70.0003,
      "raan_deg": 308.7408,
      "arg_perigee_deg": 267.9519,
      "mean_anomaly_deg": 92.1341,
      "mean_motion_rev_day": 14.98335601
    },
    {
      "epoch": "2026-05-16T13:27:54.220608Z",
      "apogee_km": 573.8796642267125,
      "perigee_km": 570.1863438865566,
      "latitude_deg": -8.279324005977962e-05,
      "longitude_deg": -132.7314231057818,
      "height_km": 574.6290595207603,
      "semi_major_axis_km": 6950.170004056635,
      "eccentricity": 0.0002657,
      "inclination_deg": 70.0014,
      "raan_deg": 303.5209,
      "arg_perigee_deg": 264.7548,
      "mean_anomaly_deg": 95.3307,
      "mean_motion_rev_day": 14.98337401
    }
  ]
}